NORAD_CAT_ID,OBJECT_NAME,OBJECT_TYPE,EPOCH,MEAN_MOTION,ECCENTRICITY,INCLINATION,RA_OF_ASC_NODE,ARG_OF_PERICENTER,MEAN_ANOMALY,BSTAR,MEAN_MOTION_DOT,MEAN_MOTION_DDOT,TLE_LINE0,TLE_LINE1,TLE_LINE2,SEMIMAJOR_AXIS,PERIOD,APOGEE,PERIGEE,DECAYED
54763.0,STARLINK-5191,PAYLOAD,2023-10-15 13:50:57,15.08823979,0.0001453,53.2176,17.2934,94.6363,265.4795,0.00010723,1.418e-05,0.0,0 STARLINK-5191,1 54763U 22175F   23288.57705765  .00001418  00000-0  10723-3 0  9997,2 54763  53.2176  17.2934 0001453  94.6363 265.4795 15.08823979 47653,6917.929,95.439,540.8,538.789,0.0
54763.0,STARLINK-5191,PAYLOAD,2023-10-16 12:06:22,15.08850956,0.0001479,53.2175,13.1307,91.2625,268.8537,0.0012998,0.00020465,0.0,0 STARLINK-5191,1 54763U 22175F   23289.50442482  .00020465  00000-0  12998-2 0  9993,2 54763  53.2175  13.1307 0001479  91.2625 268.8537 15.08850956 45635,6917.847,95.437,540.735,538.689,0.0
54763.0,STARLINK-5191,PAYLOAD,2023-10-16 15:17:08,15.08861217,0.000154,53.2175,12.5363,88.1341,271.9828,0.0016445,0.00025996,0.0,0 STARLINK-5191,1 54763U 22175F   23289.63690299  .00025996  00000-0  16445-2 0  9993,2 54763  53.2175  12.5363 0001540  88.1341 271.9828 15.08861217 47811,6917.816,95.436,540.746,538.615,0.0
54763.0,STARLINK-5191,PAYLOAD,2023-10-17 11:57:09,15.08855873,0.0001473,53.218,8.6704,91.2153,268.9008,0.0011408,0.00017922,0.0,0 STARLINK-5191,1 54763U 22175F   23290.49802086  .00017922  00000-0  11408-2 0  9992,2 54763  53.2180   8.6704 0001473  91.2153 268.9008 15.08855873 45784,6917.832,95.437,540.716,538.678,0.0
54763.0,STARLINK-5191,PAYLOAD,2023-10-18 11:47:56,15.08857561,0.0001599,53.2186,4.2104,81.0442,279.0731,0.0011441,0.00017976,0.0,0 STARLINK-5191,1 54763U 22175F   23291.49162108  .00017976  00000-0  11441-2 0  9993,2 54763  53.2186   4.2104 0001599  81.0442 279.0731 15.08857561 45932,6917.827,95.436,540.798,538.586,0.0
54763.0,STARLINK-5191,PAYLOAD,2023-10-18 14:58:42,15.08863429,0.0001573,53.2189,3.6167,80.9203,279.1967,0.0011953,0.00018799,0.0,0 STARLINK-5191,1 54763U 22175F   23291.62409935  .00018799  00000-0  11953-2 0  9992,2 54763  53.2189   3.6167 0001573  80.9203 279.1967 15.08863429 48117,6917.809,95.436,540.762,538.586,0.0
54763.0,STARLINK-5191,PAYLOAD,2023-10-19 05:17:10,15.08849541,0.0001323,53.2189,0.9391,81.352,278.7622,0.00098341,0.00015402,0.0,0 STARLINK-5191,1 54763U 22175F   23292.22025890  .00015402  00000-0  98341-3 0  9998,2 54763  53.2189   0.9391 0001323  81.3520 278.7622 15.08849541 46048,6917.851,95.437,540.631,538.801,0.0
54763.0,STARLINK-5191,PAYLOAD,2023-10-19 11:38:42,15.08862659,0.0001785,53.2189,359.75,96.6612,263.4583,0.0010718,0.00016821,0.0,0 STARLINK-5191,1 54763U 22175F   23292.48521530  .00016821  00000-0  10718-2 0  9995,2 54763  53.2189 359.7500 0001785  96.6612 263.4583 15.08862659 48244,6917.811,95.436,540.911,538.441,0.0
54763.0,STARLINK-5191,PAYLOAD,2023-10-20 11:29:30,15.08837078,0.0001549,53.2183,355.2887,107.4794,252.6367,0.00027145,4.034e-05,0.0,0 STARLINK-5191,1 54763U 22175F   23293.47881956  .00004034  00000-0  27145-3 0  9992,2 54763  53.2183 355.2887 0001549 107.4794 252.6367 15.08837078 46231,6917.889,95.438,540.826,538.683,0.0
54763.0,STARLINK-5191,PAYLOAD,2023-10-20 14:40:16,15.0883781,0.0001479,53.2179,354.6922,102.7094,257.4063,2.8065e-05,1.59e-06,0.0,0 STARLINK-5191,1 54763U 22175F   23293.61129949  .00000159  00000-0  28065-4 0  9992,2 54763  53.2179 354.6922 0001479 102.7094 257.4063 15.08837810 48414,6917.887,95.438,540.775,538.729,0.0
54763.0,STARLINK-5191,PAYLOAD,2023-10-21 12:55:40,15.08838723,0.0001661,53.2191,350.527,83.9895,276.1286,0.00012394,1.685e-05,0.0,0 STARLINK-5191,1 54763U 22175F   23294.53866463  .00001685  00000-0  12394-3 0  9995,2 54763  53.2191 350.5270 0001661  83.9895 276.1286 15.08838723 46395,6917.884,95.438,540.898,538.6,0.0
54763.0,STARLINK-5191,PAYLOAD,2023-10-21 20:52:36,15.08836018,0.0001639,53.2194,349.0399,95.4678,264.6501,0.00013067,1.792e-05,0.0,0 STARLINK-5191,1 54763U 22175F   23294.86986619  .00001792  00000-0  13067-3 0  9994,2 54763  53.2194 349.0399 0001639  95.4678 264.6501 15.08836018 48608,6917.893,95.438,540.891,538.624,0.0
54763.0,STARLINK-5191,PAYLOAD,2023-10-22 11:11:04,15.08843709,0.0001558,53.2191,346.3651,94.3986,265.7184,0.00023914,3.52e-05,0.0,0 STARLINK-5191,1 54763U 22175F   23295.46602450  .00003520  00000-0  23914-3 0  9992,2 54763  53.2191 346.3651 0001558  94.3986 265.7184 15.08843709 48699,6917.869,95.437,540.812,538.656,0.0
54763.0,STARLINK-5191,PAYLOAD,2023-10-22 20:43:23,15.0884139,0.0001504,53.2187,344.5827,93.3783,266.7381,0.00015572,2.191e-05,0.0,0 STARLINK-5191,1 54763U 22175F   23295.86346613  .00002191  00000-0  15572-3 0  9996,2 54763  53.2187 344.5827 0001504  93.3783 266.7381 15.08841390 46595,6917.876,95.437,540.782,538.701,0.0
54763.0,STARLINK-5191,PAYLOAD,2023-10-23 20:34:10,15.08841793,0.0001584,53.2182,340.1237,87.9749,272.1424,3.7606e-05,3.11e-06,0.0,0 STARLINK-5191,1 54763U 22175F   23296.85706852  .00000311  00000-0  37606-4 0  9996,2 54763  53.2182 340.1237 0001584  87.9749 272.1424 15.08841793 48909,6917.875,95.437,540.836,538.644,0.0
54763.0,STARLINK-5191,PAYLOAD,2023-10-24 02:55:43,15.08838699,0.000158,53.2178,338.9355,87.4953,272.6221,6.349e-05,7.23e-06,0.0,0 STARLINK-5191,1 54763U 22175F   23297.12203092  .00000723  00000-0  63490-4 0  9992,2 54763  53.2178 338.9355 0001580  87.4953 272.6221 15.08838699 46783,6917.884,95.438,540.842,538.656,0.0
54763.0,STARLINK-5191,PAYLOAD,2023-10-24 09:17:15,15.08844074,0.000167,53.2186,337.7448,92.685,267.4334,9.902e-05,1.288e-05,0.0,0 STARLINK-5191,1 54763U 22175F   23297.38698857  .00001288  00000-0  99020-4 0  9992,2 54763  53.2186 337.7448 0001670  92.6850 267.4334 15.08844074 48981,6917.868,95.437,540.888,538.578,0.0
54763.0,STARLINK-5191,PAYLOAD,2023-10-25 09:08:02,15.0884461,0.0001755,53.2183,333.2846,95.3671,264.7522,0.00016696,2.37e-05,0.0,0 STARLINK-5191,1 54763U 22175F   23298.38058654  .00002370  00000-0  16696-3 0  9998,2 54763  53.2183 333.2846 0001755  95.3671 264.7522 15.08844610 46978,6917.866,95.437,540.945,538.517,0.0
54763.0,STARLINK-5191,PAYLOAD,2023-10-26 02:37:17,15.08837648,0.0001715,53.218,330.0136,94.4223,265.6966,9.5193e-05,1.227e-05,0.0,0 STARLINK-5191,1 54763U 22175F   23299.10923234  .00001227  00000-0  95193-4 0  9994,2 54763  53.2180 330.0136 0001715  94.4223 265.6966 15.08837648 47089,6917.888,95.438,540.939,538.566,0.0
54763.0,STARLINK-5191,PAYLOAD,2023-10-26 10:34:13,15.08841118,0.0001769,53.2185,328.5266,98.9625,261.1567,5.3117e-05,5.57e-06,0.0,0 STARLINK-5191,1 54763U 22175F   23299.44043026  .00000557  00000-0  53117-4 0  9998,2 54763  53.2185 328.5266 0001769  98.9625 261.1567 15.08841118 49294,6917.877,95.437,540.966,538.518,0.0
54763.0,STARLINK-5191,PAYLOAD,2023-10-27 02:28:04,15.08846627,0.0001875,53.2183,325.551,113.0928,247.0262,5.9561e-05,6.6e-06,0.0,0 STARLINK-5191,1 54763U 22175F   23300.10282483  .00000660  00000-0  59561-4 0  9990,2 54763  53.2183 325.5510 0001875 113.0928 247.0262 15.08846627 47231,6917.86,95.437,541.022,538.428,0.0
54763.0,STARLINK-5191,PAYLOAD,2023-10-27 08:49:35,15.0886317,0.0001822,53.2183,324.3677,104.6883,255.4311,-8.9034e-05,-1.706e-05,0.0,0 STARLINK-5191,1 54763U 22175F   23300.36777496 -.00001706  00000-0 -89034-4 0  9993,2 54763  53.2183 324.3677 0001822 104.6883 255.4311 15.08863170 47274,6917.81,95.436,540.935,538.414,0.0
54763.0,STARLINK-5191,PAYLOAD,2023-10-27 18:21:55,15.08844906,0.0001684,53.2178,322.5809,98.7096,261.4086,7.2561e-05,8.67e-06,0.0,0 STARLINK-5191,1 54763U 22175F   23300.76522302  .00000867  00000-0  72561-4 0  9993,2 54763  53.2178 322.5809 0001684  98.7096 261.4086 15.08844906 47339,6917.865,95.437,540.895,538.565,0.0
54763.0,STARLINK-5191,PAYLOAD,2023-10-28 08:40:24,15.08827248,0.0001731,53.218,319.9065,97.2194,262.8995,-9.8177e-05,-1.85e-05,0.0,0 STARLINK-5191,1 54763U 22175F   23301.36139637 -.00001850  00000-0 -98177-4 0  9991,2 54763  53.2180 319.9065 0001731  97.2194 262.8995 15.08827248 47426,6917.919,95.438,540.982,538.587,0.0
54763.0,STARLINK-5191,PAYLOAD,2023-10-28 18:12:43,15.08834686,0.0001765,53.2181,318.122,91.7914,268.3281,2.5176e-05,1.13e-06,0.0,0 STARLINK-5191,1 54763U 22175F   23301.75883411  .00000113  00000-0  25176-4 0  9998,2 54763  53.2181 318.1220 0001765  91.7914 268.3281 15.08834686 47486,6917.897,95.438,540.983,538.541,0.0
54763.0,STARLINK-5191,PAYLOAD,2023-10-29 08:31:11,15.08859765,0.0001657,53.2165,315.4439,84.976,275.1421,0.0012208,0.00019205,0.0,0 STARLINK-5191,1 54763U 22175F   23302.35499169  .00019205  00000-0  12208-2 0  9990,2 54763  53.2165 315.4439 0001657  84.9760 275.1421 15.08859765 47570,6917.82,95.436,540.831,538.539,0.0
54763.0,STARLINK-5191,PAYLOAD,2023-10-29 18:03:30,15.08852484,0.0001649,53.2169,313.6591,92.5331,267.585,0.00056031,8.644e-05,0.0,0 STARLINK-5191,1 54763U 22175F   23302.75243116  .00008644  00000-0  56031-3 0  9991,2 54763  53.2169 313.6591 0001649  92.5331 267.5850 15.08852484 47632,6917.842,95.437,540.848,538.566,0.0
54763.0,STARLINK-5191,PAYLOAD,2023-10-30 02:00:25,15.08843553,0.0001951,53.2162,312.1722,91.2284,268.8931,0.0001804,2.584e-05,0.0,0 STARLINK-5191,1 54763U 22175F   23303.08363325  .00002584  00000-0  18040-3 0  9998,2 54763  53.2162 312.1722 0001951  91.2284 268.8931 15.08843553 47680,6917.87,95.437,541.084,538.385,0.0
54763.0,STARLINK-5191,PAYLOAD,2023-10-30 17:54:17,15.08839125,0.000198,53.2171,309.1991,88.3745,271.7474,0.00054454,8.389e-05,0.0,0 STARLINK-5191,1 54763U 22175F   23303.74603887  .00008389  00000-0  54454-3 0  9999,2 54763  53.2171 309.1991 0001980  88.3745 271.7474 15.08839125 47781,6917.883,95.438,541.118,538.378,0.0
54763.0,STARLINK-5191,PAYLOAD,2023-10-31 05:02:00,15.08834078,0.0001934,53.2178,307.1173,90.0803,270.0411,0.00046936,7.188e-05,0.0,0 STARLINK-5191,1 54763U 22175F   23304.20972309  .00007188  00000-0  46936-3 0  9991,2 54763  53.2178 307.1173 0001934  90.0803 270.0411 15.08834078 47855,6917.898,95.438,541.101,538.426,0.0
